id,category,satellite_name,tle_line1,tle_line2,inclination,eccentricity,period,perigee,apogee,epoch,raan,arg_perigee,mean_anomaly,mean_motion,semi_major_axis,velocity,orbit_type,satellite_age,bstar,rev_num,norad_number,ephemeris_type,intl_designator
7697,active,STARLINK-30773,1 58161U 23166M   25017.33372346  .00000208  00000+0  19163-4 0  9998,2 58161  53.1611 353.5068 0001098 100.8971 259.2154 15.30195269 69435,53.1611,0.0001098,94.10563665780096,474.61369576069774,476.1186949772009,2025-01-17 08:00:33.706944,353.5068,100.8971,15.30195269,15.30195269,6853.36619536895,7.626353268658308,LEO,2,1.9163e-05,6943,58161,0,23166M
7691,active,STARLINK-30804,1 58155U 23166F   25017.22631558  .00000750  00000+0  37441-4 0  9993,2 58155  53.1619 354.2718 0001261 109.9636 250.1500 15.30192283 69412,53.1619,0.0001261,94.10582029448125,474.5109004856522,476.2393216886685,2025-01-17 05:25:53.666112,354.2718,109.9636,15.30192283,15.30192283,6853.375111087161,7.62634830800478,LEO,2,3.7441e-05,6941,58155,0,23166F
7700,active,STARLINK-30815,1 58164U 23166Q   25017.34005852  .00002981  00000+0  11272-3 0  9999,2 58164  53.1601 353.5619 0001180 100.3551 259.7583 15.30201527 69436,53.1601,0.000118,94.10525179798752,474.53881507017013,476.1562050825487,2025-01-17 08:09:41.056128,353.5619,100.3551,15.30201527,15.30201527,6853.347510076359,7.626363665077348,LEO,2,0.00011272,6943,58164,0,23166Q
7701,active,STARLINK-30814,1 58165U 23166R   25017.24519907 -.00000380  00000+0 -70188-6 0  9997,2 58165  53.1619 353.6845 0001102  94.7377 265.3749 15.30192352 69425,53.1619,0.0001102,94.10581605102676,474.6196631493358,476.1301469784112,2025-01-17 05:53:05.199648,353.6845,94.7377,15.30192352,15.30192352,6853.3749050638735,7.626348422634825,LEO,2,-7.018799999999999e-07,6942,58165,0,23166R
7704,active,STARLINK-30812,1 58168U 23166U   25017.24836881 -.00000499  00000+0 -47242-5 0  9998,2 58168  53.1621 353.7076 0001709  81.8229 278.2965 15.30192582 69275,53.1621,0.0001709,94.10580190618126,474.202976665787,476.54545997360856,2025-01-17 05:57:39.065184,353.7076,81.8229,15.30192582,15.30192582,6853.374218319697,7.6263488047349455,LEO,2,-4.7242000000000004e-06,6927,58168,0,23166U
7707,active,STARLINK-30752,1 58171U 23166X   25017.19043818  .00000022  00000+0  12855-4 0  9997,2 58171  53.1619 354.0450 0001213  91.5869 268.5271 15.30189475 69419,53.1619,0.0001213,94.1059929849537,474.55217993432234,476.2148107702942,2025-01-17 04:34:13.858752,354.045,91.5869,15.30189475,15.30189475,6853.383495352308,7.6263436430574645,LEO,2,1.2855e-05,6941,58171,0,23166X
7708,active,COSMOS 2571,1 58172U 23165C   25017.72512963  .00000107  00000+0  13002-3 0  9996,2 58172  67.1498 101.3972 0013962 347.1205  12.9521 13.97235777 62342,67.1498,0.0013962,103.06063040353997,893.3534797992888,913.6863960739838,2025-01-17 17:24:11.200032,101.3972,347.1205,13.97235777,13.97235777,7281.519937936636,7.398741709748497,LEO,2,0.00013002,6234,58172,0,23165C
7709,active,STARLINK-30753,1 58175U 23167A   25017.03931871  .00004774  00000+0  36818-3 0  9992,2 58175  42.9996 249.6208 0001227 270.2243  89.8459 15.02543536 68281,42.9996,0.0001227,95.83748926393838,558.3421440292441,560.0445312743041,2025-01-17 00:56:37.136544,249.6208,270.2243,15.02543536,15.02543536,6937.1933376517745,7.580135843666989,LEO,2,0.00036818,6828,58175,0,23167A
7696,active,STARLINK-30779,1 58160U 23166L   25017.21893035  .00005738  00000+0  20576-3 0  9999,2 58160  53.1605 354.2265 0001281  89.7307 270.3841 15.30189161 69415,53.1605,0.0001281,94.1060122958223,474.50651436476164,476.26235145647206,2025-01-17 05:15:15.58224,354.2265,89.7307,15.30189161,15.30189161,6853.384432910617,7.626343121407019,LEO,2,0.00020576,6941,58160,0,23166L
7712,active,STARLINK-30810,1 58178U 23167D   25017.36405715  .00000516  00000+0  53228-4 0  9999,2 58178  43.0014 248.6024 0001026 268.4685  91.6040 15.02536668 68328,43.0014,0.0001026,95.83792733103537,558.502719078052,559.9262354887896,2025-01-17 08:44:14.53776,248.6024,268.4685,15.02536668,15.02536668,6937.214477283421,7.580124294261809,LEO,2,5.3228e-05,6832,58178,0,23167D
7713,active,STARLINK-30819,1 58179U 23167E   25017.62663627  .00000561  00000+0  56602-4 0  9996,2 58179  43.0013 247.1307 0001082 269.1304  90.9414 15.02536005 68360,43.0013,0.0001082,95.83796961990272,558.4659111717119,559.9671248262066,2025-01-17 15:02:21.373728,247.13070000000002,269.1304,15.02536005,15.02536005,6937.21651799896,7.580123179342119,LEO,2,5.6602e-05,6836,58179,0,23167E
7716,active,STARLINK-30778,1 58182U 23167H   25017.04819708  .00000004  00000+0  15366-4 0  9993,2 58182  43.0022 249.6678 0001009 269.0791  90.9935 15.02533872 68288,43.0022,0.0001009,95.83810567167033,558.5231175789777,559.9230491972057,2025-01-17 01:09:24.227712,249.6678,269.0791,15.02533872,15.02533872,6937.223083388091,7.580119592426324,LEO,2,1.5365999999999998e-05,6828,58182,0,23167H
7717,active,STARLINK-30809,1 58183U 23167J   25017.02167365  .00001151  00000+0  10029-3 0  9991,2 58183  43.0031 250.3311 0001236 268.7589  91.3112 15.02536790 68278,43.0031,0.0001236,95.83791954937755,558.3566621043228,560.0715414302795,2025-01-17 00:31:12.60336,250.33109999999996,268.7589,15.0253679,15.0253679,6937.214101767301,7.5801244994204495,LEO,2,0.00010029,6827,58183,0,23167J
7718,active,STARLINK-30801,1 58184U 23167K   25017.35073906 -.00000082  00000+0  90219-5 0  9999,2 58184  43.0030 248.5011 0001417 266.1855  93.8826 15.02529190 68324,43.003,0.0001417,95.83840431080077,558.254488118785,560.2205012247741,2025-01-17 08:25:03.854784,248.50110000000004,266.1855,15.0252919,15.0252919,6937.23749467178,7.5801117190249405,LEO,2,9.0219e-06,6832,58184,0,23167K
7720,active,STARLINK-30755,1 58186U 23167M   25017.00946522 -.00001788  00000+0 -11729-3 0  9998,2 58186  43.0010 250.2404 0001193 281.0921  78.9787 15.02539662 68270,43.001,0.0001193,95.83773636186383,558.3776531754329,560.0328703508894,2025-01-17 00:13:37.795008,250.24040000000002,281.0921,15.02539662,15.02539662,6937.205261763162,7.580129329053426,LEO,2,-0.00011729000000000001,6827,58186,0,23167M
7722,active,STARLINK-30826,1 58188U 23167P   25017.07483282  .00003075  00000+0  24249-3 0  9996,2 58188  43.0015 249.8683 0001227 277.6249  82.4453 15.02550461 68283,43.0015,0.0001227,95.83704756521983,558.3208317305925,560.023213744972,2025-01-17 01:47:45.555648,249.86830000000003,277.6249,15.02550461,15.02550461,6937.172022737783,7.5801474888892,LEO,2,0.00024249000000000002,6828,58188,0,23167P
7724,active,STARLINK-30820,1 58190U 23167R   25017.34740485  .00001285  00000+0  11020-3 0  9994,2 58190  43.0019 248.4694 0000999 266.9939  93.0789 15.02537649 68327,43.0019,9.99e-05,95.83786475888833,558.5184303412652,559.9044851905273,2025-01-17 08:20:15.77904,248.46940000000004,266.9939,15.02537649,15.02537649,6937.211457765897,7.580125943938757,LEO,2,0.00011020000000000001,6832,58190,0,23167R
7725,active,STARLINK-30785,1 58191U 23167S   25017.06817949 -.00000715  00000+0 -37861-4 0  9995,2 58191  43.0005 249.8178 0001006 262.4637  97.6091 15.02529729 68282,43.0005,0.0001006,95.83836993084881,558.5379496908099,559.933721540935,2025-01-17 01:38:10.707936,249.81779999999998,262.4637,15.02529729,15.02529729,6937.235835615873,7.580112625425463,LEO,2,-3.7861e-05,6828,58191,0,23167S
9100,active,STARLINK-31687,1 59798U 24093S   25017.36829852  .00000070  00000+0  89312-5 0  9998,2 59798  43.0008  44.4517 0001502 269.5747  90.4937 15.40700751 38977,43.0008,0.0001502,93.46396430749841,443.15223963645985,445.20162158641506,2025-01-17 08:50:20.992128,44.4517,269.5747,15.40700751,15.40700751,6822.1769306114375,7.643766267030751,LEO,2,8.9312e-06,3897,59798,0,24093S
3836,active,JILIN-1 MF02A01,1 51826U 22019C   25017.49474134  .00463113  00000+0  18579-2 0  9996,2 51826  97.3912 105.0706 0003545 230.2541 129.8418 15.85331926160708,97.3912,0.0003545,90.83271309834203,313.15442145316865,317.9001322924714,2025-01-17 11:52:25.651776,105.0706,230.2541,129.8418,15.85331926,6693.52727687282,7.716873287292347,LEO,2,0.0018579000000000002,16070,51826,0,22019C
7733,active,TIANHUI 5B,1 58201U 23168C   25015.61018839  .00000932  00000+0  10860-3 0  9996,2 58201  97.8207  25.4054 0002025  80.3459 279.7986 14.87575413 65654,97.8207,0.0002025,96.80181504855241,604.2365808604454,607.0649594223541,2025-01-15 14:38:40.276896,25.4054,80.3459,14.87575413,14.87575413,6983.650770141399,7.554881053868912,LEO,4,0.00010860000000000001,6565,58201,0,23168C
7738,active,STARLINK-30839,1 58209U 23170D   25017.10996362 -.00001657  00000+0 -10764-3 0  9999,2 58209  42.9984 299.6267 0000486 343.8215  16.2612 15.02538155 67610,42.9984,4.86e-05,95.83783248419405,558.8727518982723,559.5470487005805,2025-01-17 02:38:20.856768,299.6267,343.8215,15.02538155,15.02538155,6937.209900299426,7.580126794842182,LEO,2,-0.00010764,6761,58209,0,23170D
7732,active,TIANHUI 5A,1 58199U 23168A   25015.61018608  .00000746  00000+0  88088-4 0  9997,2 58199  97.8212  25.4072 0001659  96.5739 263.5666 14.87575143 65654,97.8212,0.0001659,96.80183261841448,604.4930273761584,606.8102029820748,2025-01-15 14:38:40.077312,25.4072,96.5739,14.87575143,14.87575143,6983.651615179117,7.554880596790009,LEO,4,8.8088e-05,6565,58199,0,23168A
7741,active,STARLINK-30837,1 58212U 23170G   25017.11661498  .00000344  00000+0  40506-4 0  9991,2 58212  43.0030 299.6509 0001246 275.7102  84.3598 15.02537889 67612,43.003,0.0001246,95.83784945073023,558.3463425909194,560.0750955021058,2025-01-17 02:47:55.534272,299.6509,275.7102,15.02537889,15.02537889,6937.210719046513,7.580126347529339,LEO,2,4.0506e-05,6761,58212,0,23170G
7744,active,STARLINK-30851,1 58215U 23170K   25017.15979103 -.00000196  00000+0  59379-6 0  9999,2 58215  43.0042 299.1342 0001200 271.4699  88.6006 15.02534530 67624,43.0042,0.00012,95.83806370160424,558.3885915308001,560.0535245847341,2025-01-17 03:50:05.944992,299.1342,271.4699,15.0253453,15.0253453,6937.221058057768,7.580120698938918,LEO,2,5.9379e-07,6762,58215,0,23170K
